{
  "type": "FeatureCollection",
  "features": [
    {
      "type": "Feature",
      "properties": {
        "norad_id": 66926,
        "name": "STARLINK-35942",
        "group": "last-30-days",
        "lat": -36.56585007732927,
        "lon": -116.6619913541949,
        "alt_km": 314.640661557567,
        "timestamp": "2025-12-16T21:38:55.919848+00:00",
        "meta_object_name": "STARLINK-35942",
        "meta_object_id": "2025-286B",
        "meta_epoch": "2025-12-16T06:00:02.999808",
        "meta_mean_motion": 15.8898643,
        "meta_eccentricity": 7.036e-05,
        "meta_inclination": 53.1569,
        "meta_ra_of_asc_node": 32.8501,
        "meta_arg_of_pericenter": 92.4402,
        "meta_mean_anomaly": 5.818,
        "meta_ephemeris_type": 0,
        "meta_classification_type": "U",
        "meta_norad_cat_id": 66926,
        "meta_element_set_no": 999,
        "meta_rev_at_epoch": 255,
        "meta_bstar": -0.0047988713,
        "meta_mean_motion_dot": -0.01244134,
        "meta_mean_motion_ddot": 0,
        "tle_line1": "1 66926U 25286B   25350.25003472 -.01244134  00000+0 -47989-2 0  9999",
        "tle_line2": "2 66926  53.1569  32.8501 0000703  92.4402   5.8180 15.88986430  2556"
      },
      "geometry": {
        "type": "Point",
        "coordinates": [
          -116.6619913541949,
          -36.56585007732927
        ]
      }
    },
    {
      "type": "Feature",
      "properties": {
        "norad_id": 66927,
        "name": "STARLINK-35943",
        "group": "last-30-days",
        "lat": -37.85957523555222,
        "lon": -114.80462784667334,
        "alt_km": 314.70489643782184,
        "timestamp": "2025-12-16T21:38:55.919858+00:00",
        "meta_object_name": "STARLINK-35943",
        "meta_object_id": "2025-286C",
        "meta_epoch": "2025-12-16T06:00:02.999808",
        "meta_mean_motion": 15.89027035,
        "meta_eccentricity": 7.998e-05,
        "meta_inclination": 53.1569,
        "meta_ra_of_asc_node": 32.8465,
        "meta_arg_of_pericenter": 83.9161,
        "meta_mean_anomaly": 16.2227,
        "meta_ephemeris_type": 0,
        "meta_classification_type": "U",
        "meta_norad_cat_id": 66927,
        "meta_element_set_no": 999,
        "meta_rev_at_epoch": 255,
        "meta_bstar": -0.0048012117,
        "meta_mean_motion_dot": -0.01247013,
        "meta_mean_motion_ddot": 0,
        "tle_line1": "1 66927U 25286C   25350.25003472 -.01247013  00000+0 -48012-2 0  9997",
        "tle_line2": "2 66927  53.1569  32.8465 0000799  83.9161  16.2227 15.89027035  2554"
      },
      "geometry": {
        "type": "Point",
        "coordinates": [
          -114.80462784667334,
          -37.85957523555222
        ]
      }
    },
    {
      "type": "Feature",
      "properties": {
        "norad_id": 66928,
        "name": "STARLINK-35944",
        "group": "last-30-days",
        "lat": -35.21635974818907,
        "lon": -118.49384589377087,
        "alt_km": 314.73109275888874,
        "timestamp": "2025-12-16T21:38:55.919870+00:00",
        "meta_object_name": "STARLINK-35944",
        "meta_object_id": "2025-286D",
        "meta_epoch": "2025-12-16T06:00:02.999808",
        "meta_mean_motion": 15.8894704,
        "meta_eccentricity": 8.095e-05,
        "meta_inclination": 53.157,
        "meta_ra_of_asc_node": 32.8542,
        "meta_arg_of_pericenter": 88.1434,
        "meta_mean_anomaly": 8.1889,
        "meta_ephemeris_type": 0,
        "meta_classification_type": "U",
        "meta_norad_cat_id": 66928,
        "meta_element_set_no": 999,
        "meta_rev_at_epoch": 255,
        "meta_bstar": -0.0047918034,
        "meta_mean_motion_dot": -0.01240359,
        "meta_mean_motion_ddot": 0,
        "tle_line1": "1 66928U 25286D   25350.25003472 -.01240359  00000+0 -47918-2 0  9998",
        "tle_line2": "2 66928  53.1570  32.8542 0000809  88.1434   8.1889 15.88947040  2555"
      },
      "geometry": {
        "type": "Point",
        "coordinates": [
          -118.49384589377087,
          -35.21635974818907
        ]
      }
    },
    {
      "type": "Feature",
      "properties": {
        "norad_id": 66929,
        "name": "STARLINK-36169",
        "group": "last-30-days",
        "lat": -39.23187628940452,
        "lon": -112.71057061210543,
        "alt_km": 314.70030598784524,
        "timestamp": "2025-12-16T21:38:55.919880+00:00",
        "meta_object_name": "STARLINK-36169",
        "meta_object_id": "2025-286E",
        "meta_epoch": "2025-12-16T06:00:02.999808",
        "meta_mean_motion": 15.89072404,
        "meta_eccentricity": 8.162e-05,
        "meta_inclination": 53.1567,
        "meta_ra_of_asc_node": 32.8419,
        "meta_arg_of_pericenter": 85.1485,
        "meta_mean_anomaly": 17.0456,
        "meta_ephemeris_type": 0,
        "meta_classification_type": "U",
        "meta_norad_cat_id": 66929,
        "meta_element_set_no": 999,
        "meta_rev_at_epoch": 255,
        "meta_bstar": -0.0048361768,
        "meta_mean_motion_dot": -0.01257653,
        "meta_mean_motion_ddot": 0,
        "tle_line1": "1 66929U 25286E   25350.25003472 -.01257653  00000+0 -48362-2 0  9998",
        "tle_line2": "2 66929  53.1567  32.8419 0000816  85.1485  17.0456 15.89072404  2559"
      },
      "geometry": {
        "type": "Point",
        "coordinates": [
          -112.71057061210543,
          -39.23187628940452
        ]
      }
    },
    {
      "type": "Feature",
      "properties": {
        "norad_id": 66930,
        "name": "STARLINK-36206",
        "group": "last-30-days",
        "lat": -40.432822901289605,
        "lon": -110.75683766260657,
        "alt_km": 314.6149892096555,
        "timestamp": "2025-12-16T21:38:55.919890+00:00",
        "meta_object_name": "STARLINK-36206",
        "meta_object_id": "2025-286F",
        "meta_epoch": "2025-12-16T06:00:02.999808",
        "meta_mean_motion": 15.89109442,
        "meta_eccentricity": 8.035e-05,
        "meta_inclination": 53.1567,
        "meta_ra_of_asc_node": 32.838,
        "meta_arg_of_pericenter": 90.6406,
        "meta_mean_anomaly": 13.3885,
        "meta_ephemeris_type": 0,
        "meta_classification_type": "U",
        "meta_norad_cat_id": 66930,
        "meta_element_set_no": 999,
        "meta_rev_at_epoch": 255,
        "meta_bstar": -0.0048169246,
        "meta_mean_motion_dot": -0.01255301,
        "meta_mean_motion_ddot": 0,
        "tle_line1": "1 66930U 25286F   25350.25003472 -.01255301  00000+0 -48169-2 0  9993",
        "tle_line2": "2 66930  53.1567  32.8380 0000803  90.6406  13.3885 15.89109442  2556"
      },
      "geometry": {
        "type": "Point",
        "coordinates": [
          -110.75683766260657,
          -40.432822901289605
        ]
      }
    },
    {
      "type": "Feature",
      "properties": {
        "norad_id": 66931,
        "name": "STARLINK-36130",
        "group": "last-30-days",
        "lat": -41.761270150785826,
        "lon": -108.44152194233108,
        "alt_km": 314.6298382218474,
        "timestamp": "2025-12-16T21:38:55.919900+00:00",
        "meta_object_name": "STARLINK-36130",
        "meta_object_id": "2025-286G",
        "meta_epoch": "2025-12-16T06:00:02.999808",
        "meta_mean_motion": 15.89155879,
        "meta_eccentricity": 7.997e-05,
        "meta_inclination": 53.1568,
        "meta_ra_of_asc_node": 32.8337,
        "meta_arg_of_pericenter": 81.5949,
        "meta_mean_anomaly": 24.5473,
        "meta_ephemeris_type": 0,
        "meta_classification_type": "U",
        "meta_norad_cat_id": 66931,
        "meta_element_set_no": 999,
        "meta_rev_at_epoch": 255,
        "meta_bstar": -0.0048560214,
        "meta_mean_motion_dot": -0.01266982,
        "meta_mean_motion_ddot": 0,
        "tle_line1": "1 66931U 25286G   25350.25003472 -.01266982  00000+0 -48560-2 0  9996",
        "tle_line2": "2 66931  53.1568  32.8337 0000799  81.5949  24.5473 15.89155879  2557"
      },
      "geometry": {
        "type": "Point",
        "coordinates": [
          -108.44152194233108,
          -41.761270150785826
        ]
      }
    },
    {
      "type": "Feature",
      "properties": {
        "norad_id": 66932,
        "name": "STARLINK-36177",
        "group": "last-30-days",
        "lat": -43.012441903418086,
        "lon": -106.08609603174361,
        "alt_km": 314.61136666837956,
        "timestamp": "2025-12-16T21:38:55.919910+00:00",
        "meta_object_name": "STARLINK-36177",
        "meta_object_id": "2025-286H",
        "meta_epoch": "2025-12-16T06:00:02.999808",
        "meta_mean_motion": 15.89196425,
        "meta_eccentricity": 8.465e-05,
        "meta_inclination": 53.1568,
        "meta_ra_of_asc_node": 32.8294,
        "meta_arg_of_pericenter": 83.7458,
        "meta_mean_anomaly": 24.4569,
        "meta_ephemeris_type": 0,
        "meta_classification_type": "U",
        "meta_norad_cat_id": 66932,
        "meta_element_set_no": 999,
        "meta_rev_at_epoch": 255,
        "meta_bstar": -0.0048631436,
        "meta_mean_motion_dot": -0.01270981,
        "meta_mean_motion_ddot": 0,
        "tle_line1": "1 66932U 25286H   25350.25003472 -.01270981  00000+0 -48631-2 0  9990",
        "tle_line2": "2 66932  53.1568  32.8294 0000846  83.7458  24.4569 15.89196425  2559"
      },
      "geometry": {
        "type": "Point",
        "coordinates": [
          -106.08609603174361,
          -43.012441903418086
        ]
      }
    }
  ]
}